{
    "links": {
        "self": "http://www.neowsapp.com/rest/v1/neo/54087839?api_key=iIulBulltgU6a56xZRHN4H3l9WmuAYTsLGpBGhQ2"
    },
    "id": "54087839",
    "neo_reference_id": "54087839",
    "name": "(2020 VL5)",
    "designation": "2020 VL5",
    "nasa_jpl_url": "http://ssd.jpl.nasa.gov/sbdb.cgi?sstr=54087839",
    "absolute_magnitude_h": 25.116,
    "estimated_diameter": {
        "kilometers": {
            "estimated_diameter_min": 0.0251973563,
            "estimated_diameter_max": 0.0563430015
        },
        "meters": {
            "estimated_diameter_min": 25.1973562709,
            "estimated_diameter_max": 56.3430014749
        },
        "miles": {
            "estimated_diameter_min": 0.0156569065,
            "estimated_diameter_max": 0.0350099072
        },
        "feet": {
            "estimated_diameter_min": 82.6684943477,
            "estimated_diameter_max": 184.852372959
        }
    },
    "is_potentially_hazardous_asteroid": false,
    "close_approach_data": [
        {
            "close_approach_date": "2020-11-08",
            "close_approach_date_full": "2020-Nov-08 21:21",
            "epoch_date_close_approach": 1604870460000,
            "relative_velocity": {
                "kilometers_per_second": "13.2205158409",
                "kilometers_per_hour": "47593.8570271079",
                "miles_per_hour": "29572.9718844271"
            },
            "miss_distance": {
                "astronomical": "0.0619089241",
                "lunar": "24.0825714749",
                "kilometers": "9261443.179351667",
                "miles": "5754793.9383083246"
            },
            "orbiting_body": "Earth"
        }
    ],
    "orbital_data": {
        "orbit_id": "4",
        "orbit_determination_date": "2020-11-23 05:21:51",
        "first_observation_date": "2020-11-14",
        "last_observation_date": "2020-11-23",
        "data_arc_in_days": 9,
        "observations_used": 29,
        "orbit_uncertainty": "8",
        "minimum_orbit_intersection": ".0203215",
        "jupiter_tisserand_invariant": "3.171",
        "epoch_osculation": "2459169.5",
        "eccentricity": ".6148643958953073",
        "semi_major_axis": "2.479802665088473",
        "inclination": "9.740448024483829",
        "ascending_node_longitude": "44.76981228331918",
        "orbital_period": "1426.343444667768",
        "perihelion_distance": ".9550602974792762",
        "perihelion_argument": "324.9654870151476",
        "aphelion_distance": "4.004545032697671",
        "perihelion_time": "2459136.019397777452",
        "mean_anomaly": "8.450290738304433",
        "mean_motion": ".252393630261927",
        "equinox": "J2000",
        "orbit_class": {
            "orbit_class_type": "APO",
            "orbit_class_description": "Near-Earth asteroid orbits which cross the Earth’s orbit similar to that of 1862 Apollo",
            "orbit_class_range": "a (semi-major axis) > 1.0 AU; q (perihelion) < 1.017 AU"
        }
    },
    "is_sentry_object": false
}